[{"OBJECT_NAME":"STARLINK-32705","OBJECT_ID":"2024-254T","EPOCH":"2026-03-09T04:28:47.211456","MEAN_MOTION":15.27607131,"ECCENTRICITY":0.00014023,"INCLINATION":43.0028,"RA_OF_ASC_NODE":11.6338,"ARG_OF_PERICENTER":251.0494,"MEAN_ANOMALY":109.0206,"EPHEMERIS_TYPE":0,"CLASSIFICATION_TYPE":"U","NORAD_CAT_ID":62479,"ELEMENT_SET_NO":999,"REV_AT_EPOCH":6750,"BSTAR":0.0010548736,"MEAN_MOTION_DOT":0.00028904,"MEAN_MOTION_DDOT":0},{"OBJECT_NAME":"SL-19 R\/B","OBJECT_ID":"2011-005B","EPOCH":"2026-03-09T21:50:35.538720","MEAN_MOTION":15.57556472,"ECCENTRICITY":0.01260184,"INCLINATION":99.3438,"RA_OF_ASC_NODE":178.5978,"ARG_OF_PERICENTER":174.8144,"MEAN_ANOMALY":185.4445,"EPHEMERIS_TYPE":0,"CLASSIFICATION_TYPE":"U","NORAD_CAT_ID":37363,"ELEMENT_SET_NO":999,"REV_AT_EPOCH":82354,"BSTAR":0.00054776137,"MEAN_MOTION_DOT":0.00058791,"MEAN_MOTION_DDOT":0}]
